{
  "norad_id": 56376,
  "name": "STARLINK-6188",
  "history": [
    {
      "epoch": "2026-03-28T16:54:37.447776Z",
      "apogee_km": 486.0920145240525,
      "perigee_km": 485.03239664069497,
      "latitude_deg": 2.2702735293716447e-06,
      "longitude_deg": 10.229448631688266,
      "height_km": 485.3648882283068,
      "semi_major_axis_km": 6863.699205582373,
      "eccentricity": 7.719e-05,
      "inclination_deg": 43.0014,
      "raan_deg": 90.0067,
      "arg_perigee_deg": 267.1553,
      "mean_anomaly_deg": 92.921,
      "mean_motion_rev_day": 15.26741103
    }
  ]
}